{
    "links": {
        "self": "http://www.neowsapp.com/rest/v1/neo/3787619?api_key=iIulBulltgU6a56xZRHN4H3l9WmuAYTsLGpBGhQ2"
    },
    "id": "3787619",
    "neo_reference_id": "3787619",
    "name": "(2017 UM2)",
    "designation": "2017 UM2",
    "nasa_jpl_url": "http://ssd.jpl.nasa.gov/sbdb.cgi?sstr=3787619",
    "absolute_magnitude_h": 26.2,
    "estimated_diameter": {
        "kilometers": {
            "estimated_diameter_min": 0.0152951935,
            "estimated_diameter_max": 0.0342010925
        },
        "meters": {
            "estimated_diameter_min": 15.2951935344,
            "estimated_diameter_max": 34.201092472
        },
        "miles": {
            "estimated_diameter_min": 0.0095039897,
            "estimated_diameter_max": 0.021251567
        },
        "feet": {
            "estimated_diameter_min": 50.1810827555,
            "estimated_diameter_max": 112.2083122258
        }
    },
    "is_potentially_hazardous_asteroid": false,
    "close_approach_data": [
        {
            "close_approach_date": "2017-10-05",
            "close_approach_date_full": "2017-Oct-05 18:18",
            "epoch_date_close_approach": 1507227480000,
            "relative_velocity": {
                "kilometers_per_second": "7.5570596311",
                "kilometers_per_hour": "27205.4146719127",
                "miles_per_hour": "16904.3866887782"
            },
            "miss_distance": {
                "astronomical": "0.0487478143",
                "lunar": "18.9628997627",
                "kilometers": "7292569.186435541",
                "miles": "4531392.3689948258"
            },
            "orbiting_body": "Earth"
        }
    ],
    "orbital_data": {
        "orbit_id": "1",
        "orbit_determination_date": "2017-10-22 07:42:07",
        "first_observation_date": "2017-10-16",
        "last_observation_date": "2017-10-22",
        "data_arc_in_days": 6,
        "observations_used": 24,
        "orbit_uncertainty": "8",
        "minimum_orbit_intersection": ".0420894",
        "jupiter_tisserand_invariant": "3.438",
        "epoch_osculation": "2458046.5",
        "eccentricity": ".5339101987709521",
        "semi_major_axis": "2.227965980392817",
        "inclination": "4.905882189655633",
        "ascending_node_longitude": "198.3615200579697",
        "orbital_period": "1214.678262617902",
        "perihelion_distance": "1.038432220946369",
        "perihelion_argument": "163.1877068526346",
        "aphelion_distance": "3.417499739839266",
        "perihelion_time": "2458023.685130976807",
        "mean_anomaly": "6.761751733868913",
        "mean_motion": ".2963747776502724",
        "equinox": "J2000",
        "orbit_class": {
            "orbit_class_type": "AMO",
            "orbit_class_description": "Near-Earth asteroid orbits similar to that of 1221 Amor",
            "orbit_class_range": "1.017 AU < q (perihelion) < 1.3 AU"
        }
    },
    "is_sentry_object": false
}